[{"OBJECT_NAME":"STARLINK-33673","OBJECT_ID":"2025-053V","EPOCH":"2026-03-29T04:14:54.015648","MEAN_MOTION":15.27608574,"ECCENTRICITY":0.0001788,"INCLINATION":43.0012,"RA_OF_ASC_NODE":123.9275,"ARG_OF_PERICENTER":275.5632,"MEAN_ANOMALY":84.5016,"EPHEMERIS_TYPE":0,"CLASSIFICATION_TYPE":"U","NORAD_CAT_ID":63284,"ELEMENT_SET_NO":999,"REV_AT_EPOCH":5937,"BSTAR":0.0014324,"MEAN_MOTION_DOT":0.00039401,"MEAN_MOTION_DDOT":0},{"OBJECT_NAME":"STARLINK-33662","OBJECT_ID":"2025-053W","EPOCH":"2026-03-29T04:00:46.173312","MEAN_MOTION":15.27596028,"ECCENTRICITY":4.36e-5,"INCLINATION":42.9981,"RA_OF_ASC_NODE":131.6569,"ARG_OF_PERICENTER":241.4536,"MEAN_ANOMALY":118.6272,"EPHEMERIS_TYPE":0,"CLASSIFICATION_TYPE":"U","NORAD_CAT_ID":63285,"ELEMENT_SET_NO":999,"REV_AT_EPOCH":5917,"BSTAR":0.0010143,"MEAN_MOTION_DOT":0.00027768,"MEAN_MOTION_DDOT":0},{"OBJECT_NAME":"STARLINK-33613","OBJECT_ID":"2025-053X","EPOCH":"2026-03-29T04:32:13.933824","MEAN_MOTION":15.27603118,"ECCENTRICITY":0.0001005,"INCLINATION":43,"RA_OF_ASC_NODE":131.824,"ARG_OF_PERICENTER":235.4265,"MEAN_ANOMALY":124.6492,"EPHEMERIS_TYPE":0,"CLASSIFICATION_TYPE":"U","NORAD_CAT_ID":63286,"ELEMENT_SET_NO":999,"REV_AT_EPOCH":5917,"BSTAR":0.0011777,"MEAN_MOTION_DOT":0.00032311,"MEAN_MOTION_DDOT":0},{"OBJECT_NAME":"STARLINK-33680","OBJECT_ID":"2025-053Y","EPOCH":"2026-03-29T03:38:33.981216","MEAN_MOTION":15.27602192,"ECCENTRICITY":0.0002333,"INCLINATION":43.0012,"RA_OF_ASC_NODE":131.5438,"ARG_OF_PERICENTER":284.7284,"MEAN_ANOMALY":75.3309,"EPHEMERIS_TYPE":0,"CLASSIFICATION_TYPE":"U","NORAD_CAT_ID":63287,"ELEMENT_SET_NO":999,"REV_AT_EPOCH":5922,"BSTAR":0.001149,"MEAN_MOTION_DOT":0.00031513,"MEAN_MOTION_DDOT":0},{"OBJECT_NAME":"STARLINK-11568 [DTC]","OBJECT_ID":"2025-057A","EPOCH":"2026-03-29T05:23:41.598528","MEAN_MOTION":15.70828485,"ECCENTRICITY":0.0004517,"INCLINATION":43.0002,"RA_OF_ASC_NODE":146.4534,"ARG_OF_PERICENTER":293.2281,"MEAN_ANOMALY":66.811,"EPHEMERIS_TYPE":0,"CLASSIFICATION_TYPE":"U","NORAD_CAT_ID":63307,"ELEMENT_SET_NO":999,"REV_AT_EPOCH":6025,"BSTAR":0.0023411,"MEAN_MOTION_DOT":0.00311402,"MEAN_MOTION_DDOT":0},{"OBJECT_NAME":"STARLINK-11575 [DTC]","OBJECT_ID":"2025-057B","EPOCH":"2026-03-29T04:30:21.392640","MEAN_MOTION":15.70930733,"ECCENTRICITY":0.0002235,"INCLINATION":43.0027,"RA_OF_ASC_NODE":147.0494,"ARG_OF_PERICENTER":258.7384,"MEAN_ANOMALY":101.3233,"EPHEMERIS_TYPE":0,"CLASSIFICATION_TYPE":"U","NORAD_CAT_ID":63308,"ELEMENT_SET_NO":999,"REV_AT_EPOCH":6024,"BSTAR":0.0028916,"MEAN_MOTION_DOT":0.00390009,"MEAN_MOTION_DDOT":0},{"OBJECT_NAME":"STARLINK-11585 [DTC]","OBJECT_ID":"2025-057C","EPOCH":"2026-03-28T20:29:38.037408","MEAN_MOTION":15.7090582,"ECCENTRICITY":0.00010438,"INCLINATION":43.0004,"RA_OF_ASC_NODE":148.837,"ARG_OF_PERICENTER":357.6773,"MEAN_ANOMALY":2.4089,"EPHEMERIS_TYPE":0,"CLASSIFICATION_TYPE":"U","NORAD_CAT_ID":63309,"ELEMENT_SET_NO":999,"REV_AT_EPOCH":6022,"BSTAR":0.0017997532,"MEAN_MOTION_DOT":0.00237872,"MEAN_MOTION_DDOT":0},{"OBJECT_NAME":"STARLINK-11587 [DTC]","OBJECT_ID":"2025-057D","EPOCH":"2026-03-28T21:23:10.423104","MEAN_MOTION":15.70966011,"ECCENTRICITY":6.65e-5,"INCLINATION":43.0007,"RA_OF_ASC_NODE":149.1368,"ARG_OF_PERICENTER":309.7673,"MEAN_ANOMALY":50.3136,"EPHEMERIS_TYPE":0,"CLASSIFICATION_TYPE":"U","NORAD_CAT_ID":63310,"ELEMENT_SET_NO":999,"REV_AT_EPOCH":6019,"BSTAR":0.002266,"MEAN_MOTION_DOT":0.00302764,"MEAN_MOTION_DDOT":0},{"OBJECT_NAME":"STARLINK-11589 [DTC]","OBJECT_ID":"2025-057E","EPOCH":"2026-03-28T13:52:59.128032","MEAN_MOTION":15.70889887,"ECCENTRICITY":0.0001487,"INCLINATION":43.0006,"RA_OF_ASC_NODE":151.0953,"ARG_OF_PERICENTER":280.7411,"MEAN_ANOMALY":79.3289,"EPHEMERIS_TYPE":0,"CLASSIFICATION_TYPE":"U","NORAD_CAT_ID":63311,"ELEMENT_SET_NO":999,"REV_AT_EPOCH":6014,"BSTAR":0.0010763,"MEAN_MOTION_DOT":0.00140309,"MEAN_MOTION_DDOT":0},{"OBJECT_NAME":"STARLINK-11650 [DTC]","OBJECT_ID":"2025-057F","EPOCH":"2026-03-28T21:09:11.051424","MEAN_MOTION":15.70875744,"ECCENTRICITY":0.0002161,"INCLINATION":43.001,"RA_OF_ASC_NODE":149.0575,"ARG_OF_PERICENTER":51.2004,"MEAN_ANOMALY":308.9056,"EPHEMERIS_TYPE":0,"CLASSIFICATION_TYPE":"U","NORAD_CAT_ID":63312,"ELEMENT_SET_NO":999,"REV_AT_EPOCH":6022,"BSTAR":0.0015697,"MEAN_MOTION_DOT":0.00206359,"MEAN_MOTION_DDOT":0},{"OBJECT_NAME":"STARLINK-11648 [DTC]","OBJECT_ID":"2025-057G","EPOCH":"2026-03-29T04:45:38.841408","MEAN_MOTION":15.70920711,"ECCENTRICITY":0.0001842,"INCLINATION":43.0006,"RA_OF_ASC_NODE":147.1336,"ARG_OF_PERICENTER":295.5484,"MEAN_ANOMALY":64.5194,"EPHEMERIS_TYPE":0,"CLASSIFICATION_TYPE":"U","NORAD_CAT_ID":63313,"ELEMENT_SET_NO":999,"REV_AT_EPOCH":6024,"BSTAR":0.0024051,"MEAN_MOTION_DOT":0.00321489,"MEAN_MOTION_DDOT":0},{"OBJECT_NAME":"STARLINK-11640 [DTC]","OBJECT_ID":"2025-057H","EPOCH":"2026-03-29T04:37:59.784384","MEAN_MOTION":15.70942055,"ECCENTRICITY":0.000132,"INCLINATION":43.0002,"RA_OF_ASC_NODE":147.0899,"ARG_OF_PERICENTER":287.3206,"MEAN_ANOMALY":72.7517,"EPHEMERIS_TYPE":0,"CLASSIFICATION_TYPE":"U","NORAD_CAT_ID":63314,"ELEMENT_SET_NO":999,"REV_AT_EPOCH":6024,"BSTAR":0.0017215,"MEAN_MOTION_DOT":0.00227576,"MEAN_MOTION_DDOT":0},{"OBJECT_NAME":"STARLINK-11652 [DTC]","OBJECT_ID":"2025-057J","EPOCH":"2026-03-28T20:44:55.035168","MEAN_MOTION":15.71002659,"ECCENTRICITY":0.00021197,"INCLINATION":43.0012,"RA_OF_ASC_NODE":148.9198,"ARG_OF_PERICENTER":295.978,"MEAN_ANOMALY":64.0869,"EPHEMERIS_TYPE":0,"CLASSIFICATION_TYPE":"U","NORAD_CAT_ID":63315,"ELEMENT_SET_NO":999,"REV_AT_EPOCH":6022,"BSTAR":0.0020979657,"MEAN_MOTION_DOT":0.00279921,"MEAN_MOTION_DDOT":0},{"OBJECT_NAME":"STARLINK-11645 [DTC]","OBJECT_ID":"2025-057K","EPOCH":"2026-03-28T21:15:29.884320","MEAN_MOTION":15.70883187,"ECCENTRICITY":8.35e-5,"INCLINATION":43.0012,"RA_OF_ASC_NODE":149.0917,"ARG_OF_PERICENTER":296.4203,"MEAN_ANOMALY":63.6579,"EPHEMERIS_TYPE":0,"CLASSIFICATION_TYPE":"U","NORAD_CAT_ID":63316,"ELEMENT_SET_NO":999,"REV_AT_EPOCH":6022,"BSTAR":0.0011388,"MEAN_MOTION_DOT":0.00148585,"MEAN_MOTION_DDOT":0},{"OBJECT_NAME":"STARLINK-11633 [DTC]","OBJECT_ID":"2025-057L","EPOCH":"2026-03-28T14:00:26.899488","MEAN_MOTION":15.7097539,"ECCENTRICITY":0.0001379,"INCLINATION":43.0012,"RA_OF_ASC_NODE":150.2379,"ARG_OF_PERICENTER":271.6598,"MEAN_ANOMALY":88.4111,"EPHEMERIS_TYPE":0,"CLASSIFICATION_TYPE":"U","NORAD_CAT_ID":63317,"ELEMENT_SET_NO":999,"REV_AT_EPOCH":6015,"BSTAR":0.0015895,"MEAN_MOTION_DOT":0.00209935,"MEAN_MOTION_DDOT":0},{"OBJECT_NAME":"STARLINK-11593 [DTC]","OBJECT_ID":"2025-057M","EPOCH":"2026-03-28T12:44:10.531680","MEAN_MOTION":15.70917497,"ECCENTRICITY":0.00023265,"INCLINATION":43.0028,"RA_OF_ASC_NODE":150.7061,"ARG_OF_PERICENTER":281.044,"MEAN_ANOMALY":79.0166,"EPHEMERIS_TYPE":0,"CLASSIFICATION_TYPE":"U","NORAD_CAT_ID":63318,"ELEMENT_SET_NO":999,"REV_AT_EPOCH":6017,"BSTAR":0.0018486059,"MEAN_MOTION_DOT":0.00244667,"MEAN_MOTION_DDOT":0}]
