STARLINK-33673          
1 63284U 25053V   26088.17701407  .00039401  00000+0  14324-2 0  9991
2 63284  43.0012 123.9275 0001788 275.5632  84.5016 15.27608574 59371
STARLINK-33662          
1 63285U 25053W   26088.16720108  .00027768  00000+0  10143-2 0  9998
2 63285  42.9981 131.6569 0000436 241.4536 118.6272 15.27596028 59172
STARLINK-33613          
1 63286U 25053X   26088.18905016  .00032311  00000+0  11777-2 0  9998
2 63286  43.0000 131.8240 0001005 235.4265 124.6492 15.27603118 59170
STARLINK-33680          
1 63287U 25053Y   26088.15178219  .00031513  00000+0  11490-2 0  9998
2 63287  43.0012 131.5438 0002333 284.7284  75.3309 15.27602192 59229
STARLINK-11568 [DTC]    
1 63307U 25057A   26088.22478702  .00311402  00000+0  23411-2 0  9997
2 63307  43.0002 146.4534 0004517 293.2281  66.8110 15.70828485 60254
STARLINK-11575 [DTC]    
1 63308U 25057B   26088.18774760  .00390009  00000+0  28916-2 0  9991
2 63308  43.0027 147.0494 0002235 258.7384 101.3233 15.70930733 60249
STARLINK-11585 [DTC]    
1 63309U 25057C   26087.85391247  .00237872  00000+0  17998-2 0  9996
2 63309  43.0004 148.8370 0001043 357.6773   2.4089 15.70905820 60221
STARLINK-11587 [DTC]    
1 63310U 25057D   26087.89109286  .00302764  00000+0  22660-2 0  9997
2 63310  43.0007 149.1368 0000665 309.7673  50.3136 15.70966011 60193
STARLINK-11589 [DTC]    
1 63311U 25057E   26087.57846213  .00140309  00000+0  10763-2 0  9997
2 63311  43.0006 151.0953 0001487 280.7411  79.3289 15.70889887 60146
STARLINK-11650 [DTC]    
1 63312U 25057F   26087.88137791  .00206359  00000+0  15697-2 0  9995
2 63312  43.0010 149.0575 0002161  51.2004 308.9056 15.70875744 60227
STARLINK-11648 [DTC]    
1 63313U 25057G   26088.19836622  .00321489  00000+0  24051-2 0  9996
2 63313  43.0006 147.1336 0001842 295.5484  64.5194 15.70920711 60242
STARLINK-11640 [DTC]    
1 63314U 25057H   26088.19305306  .00227576  00000+0  17215-2 0  9993
2 63314  43.0002 147.0899 0001320 287.3206  72.7517 15.70942055 60249
STARLINK-11652 [DTC]    
1 63315U 25057J   26087.86452587  .00279921  00000+0  20980-2 0  9995
2 63315  43.0012 148.9198 0002119 295.9780  64.0869 15.71002659 60222
STARLINK-11645 [DTC]    
1 63316U 25057K   26087.88576255  .00148585  00000+0  11388-2 0  9990
2 63316  43.0012 149.0917 0000835 296.4203  63.6579 15.70883187 60228
STARLINK-11633 [DTC]    
1 63317U 25057L   26087.58364467  .00209935  00000+0  15895-2 0  9992
2 63317  43.0012 150.2379 0001379 271.6598  88.4111 15.70975390 60158
STARLINK-11593 [DTC]    
1 63318U 25057M   26087.53067745  .00244667  00000+0  18486-2 0  9997
2 63318  43.0028 150.7061 0002326 281.0440  79.0166 15.70917497 60175
